[
  { "postalCode":"NN12 2JX","street":"Ockham Road","city":"Eastcote"},
  { "postalCode":"NR32 8ND","street":"Hounslow Rd","city":"Somerleyton"},
  { "postalCode":"LL16 5BG","street":"Malcolm Rd","city":"Llandyrnog"},
  { "postalCode":"LN3 1UT","street":"Ockham Road","city":"East Torrington"},
  { "postalCode":"RG18 3XS","street":"Eastbourne Rd","city":"Cold Ash"},
  { "postalCode":"NG34 4RH","street":"Stroude Road","city":"Silk Willoughby"},
  { "postalCode":"KW14 1SE","street":"Hexham Road","city":"Invernaver"},
  { "postalCode":"DT2 8LF","street":"Guildford Rd","city":"East Knighton"},
  { "postalCode":"TD11 7TF","street":"Old Chapel Road","city":"Gavinton"},
  { "postalCode":"S31 6EN","street":"Balsham Road","city":"Harthill"},
  { "postalCode":"OX6 2ER","street":"Harehills Lane","city":"Rousham Gap"},
  { "postalCode":"DN14 4ZP","street":"Bootham Terrace","city":"Rawcliffe"},
  { "postalCode":"SY7 5AN","street":"Northgate Street","city":"Bicton"},
  { "postalCode":"NG23 3ST","street":"Rowland Rd","city":"Ossington"},
  { "postalCode":"DG9 0QS","street":"Crescent Avenue","city":"Drummore"},
  { "postalCode":"RG27 0RH","street":"Holburn Lane","city":"Heckfield"},
  { "postalCode":"NE19 7WF","street":"Witney Way","city":"Kirkwhelpington"},
  { "postalCode":"PO36 7TG","street":"Vicar Lane","city":"Sandown"},
  { "postalCode":"KY12 4ZH","street":"Stroud Rd","city":"Oakley"},
  { "postalCode":"ME17 8RX","street":"Marcham Road","city":"Boughton Malherbe"},
  { "postalCode":"PL19 5TL","street":"Moulton Road","city":"Gulworthy"},
  { "postalCode":"AB30 6LU","street":"Brynglas Road","city":"Glensaugh"},
  { "postalCode":"WR10 4AR","street":"Boughton Rd","city":"Wick"},
  { "postalCode":"AB53 1ZX","street":"Stone Cellar Road","city":"Kingsford"},
  { "postalCode":"BH13 6PD","street":"Wade Lane","city":"Sandbanks"},
  { "postalCode":"RG18 1HS","street":"Great Western Road","city":"Longlane"},
  { "postalCode":"LD3 3WL","street":"Glandovey Terrace","city":"Tregoyd"},
  { "postalCode":"SK23 2ZD","street":"Shannon Way","city":"Chinley"},
  { "postalCode":"EH22 3YE","street":"Baldock Street","city":"Newtongrange"},
  { "postalCode":"WF17 7HS","street":"Boroughbridge Road","city":"Birstall Smithies"},
  { "postalCode":"CF33 7PR","street":"Town Lane","city":"South Cornelly"},
  { "postalCode":"WF4 7WY","street":"Redcliffe Way","city":"Woolley"},
  { "postalCode":"PA31 1RG","street":"Newport Road","city":"Carnassarie"},
  { "postalCode":"PA34 5GR","street":"Jesmond Rd","city":"Kilchoan"},
  { "postalCode":"SA32 4ZQ","street":"Quay Street","city":"Nantgaredig"},
  { "postalCode":"DL6 4PP","street":"Ockham Road","city":"East Rounton"},
  { "postalCode":"S12 0UR","street":"Prestwick Road","city":"Intake"},
  { "postalCode":"LE16 2FU","street":"Buckingham Rd","city":"Thorpe Langton"},
  { "postalCode":"SY10 8EL","street":"Essex Rd","city":"Tan-y-pistyll"},
  { "postalCode":"GU10 9EW","street":"Harrogate Road","city":"Rushmoor"},
  { "postalCode":"WR8 4WX","street":"Hindhead Road","city":"Earl's Croome"},
  { "postalCode":"WR13 6QF","street":"Simone Weil Avenue","city":"Welland"},
  { "postalCode":"NR9 8BW","street":"Abingdon Road","city":"Brandon Parva"},
  { "postalCode":"FY5 1WD","street":"Buckingham Rd","city":"Thornton"},
  { "postalCode":"LE9 6DS","street":"Broomfield Place","city":"Stoney Stanton"},
  { "postalCode":"PH2 5YG","street":"Coast Rd","city":"Kirkton Of Collace"},
  { "postalCode":"PA32 1QJ","street":"Main Road","city":"Auchindrain"},
  { "postalCode":"NR24 3UU","street":"Shore Street","city":"Stody"},
  { "postalCode":"IP22 0NT","street":"Hull Road","city":"Palgrave"},
  { "postalCode":"IP19 1GA","street":"Abingdon Road","city":"Bramfield"},
  { "postalCode":"TR25 8JR","street":"Nenthead Road","city":"Higher Town"},
  { "postalCode":"HU9 2DS","street":"East Street","city":"Marfleet"},
  { "postalCode":"RH5 9HP","street":"Kingsway North","city":"Holmbury St Mary"},
  { "postalCode":"SY25 7XT","street":"Southlands Road","city":"Pontrhydfendigaid"},
  { "postalCode":"SP5 5PJ","street":"Lamphey Road","city":"The Common"},
  { "postalCode":"PE23 5FS","street":"Newgate Street","city":"Keal Cotes"},
  { "postalCode":"B79 9RX","street":"Whatlington Road","city":"Coton"},
  { "postalCode":"SA71 7NU","street":"Winchester Rd","city":"Merrion"},
  { "postalCode":"SY19 3RT","street":"Petworth Rd","city":"Dylife"},
  { "postalCode":"CT15 6AF","street":"Guildford Rd","city":"East Langdon"},
  { "postalCode":"PL26 5JA","street":"Canterbury Road","city":"Victoria"},
  { "postalCode":"SL3 4FP","street":"London Road","city":"Coln-brook"},
  { "postalCode":"YO7 4JF","street":"North Road","city":"Nether Silton"},
  { "postalCode":"IV55 7HP","street":"Long Street","city":"Milovaig"},
  { "postalCode":"SL5 4FL","street":"Mounthoolie Lane","city":"Sunninghill"},
  { "postalCode":"PA28 4YU","street":"Copthorne Way","city":"Callyburn"},
  { "postalCode":"MK41 4FE","street":"Boat Lane","city":"Renhold"},
  { "postalCode":"TN26 7UZ","street":"Bath Rd","city":"Woodchurch"},
  { "postalCode":"CM15 7GG","street":"Prince Consort Road","city":"Kelvedon Hatch"},
  { "postalCode":"CV36 5LL","street":"Crown Street","city":"Long Compton"},
  { "postalCode":"KW14 2UZ","street":"Layburn Court","city":"Totegan"},
  { "postalCode":"SA19 1AL","street":"Seafield Street","city":"Llanycrwys"},
  { "postalCode":"LN3 3FE","street":"Roker Terrace","city":"Langton By Wragby"},
  { "postalCode":"ST2 9SB","street":"Trehafod Road","city":"Bucknall"},
  { "postalCode":"PO33 4HJ","street":"Middlewich Road","city":"Fishbourne"},
  { "postalCode":"OX13 8QU","street":"Sandyhill Rd","city":"Fyfield"},
  { "postalCode":"BA14 7NE","street":"Maidstone Road","city":"West Ashton"},
  { "postalCode":"LN4 6PW","street":"Manor Close","city":"Dogdyke"},
  { "postalCode":"WN8 6GX","street":"West Lane","city":"Dalton"},
  { "postalCode":"AB42 1DE","street":"Walden Road","city":"Greenheads"},
  { "postalCode":"MK45 0BX","street":"Bouverie Road","city":"Westoning"},
  { "postalCode":"DT6 9HW","street":"Russell Rd","city":"Shipton Gorge"},
  { "postalCode":"EX22 0ZY","street":"Simone Weil Avenue","city":"Week St Mary"},
  { "postalCode":"RG9 6QW","street":"Broad Street","city":"Lower Shiplake"},
  { "postalCode":"S30 3LF","street":"Wrexham Rd","city":"Eyam"},
  { "postalCode":"TR4 7JB","street":"Fore St","city":"Trispen"},
  { "postalCode":"MK18 8YF","street":"Botley Road","city":"Middle Claydon"},
  { "postalCode":"TA3 3GR","street":"Gloucester Road","city":"Churchstanton"},
  { "postalCode":"SG11 9HY","street":"Newmarket Road","city":"Hay Street"},
  { "postalCode":"NR4 0ZE","street":"Carriers Road","city":"Cringleford"},
  { "postalCode":"AB42 3RF","street":"Duckpit Lane","city":"Upper Hawkhillock"},
  { "postalCode":"ML12 4DY","street":"Holburn Lane","city":"Hearthstane"},
  { "postalCode":"NR16 7ZN","street":"Station Rd","city":"Quidenham"},
  { "postalCode":"IV6 3WE","street":"Fox Lane","city":"Bogbuie"},
  { "postalCode":"CM6 9FY","street":"Lammas Street","city":"Great Easton"},
  { "postalCode":"BD23 5RF","street":"Marcham Road","city":"Bordley"},
  { "postalCode":"HS3 0WY","street":"Asfordby Rd","city":"Aird Leimhe"},
  { "postalCode":"G83 9JT","street":"Old Chapel Road","city":"Gartocharn"},
  { "postalCode":"AB53 4JR","street":"Thames Street","city":"Bonnykelly"},
  { "postalCode":"KY9 3BX","street":"Jesmond Rd","city":"Kilconquhar"},
  { "postalCode":"LL34 2AQ","street":"Greyfriars Road","city":"Capelulo"},
  { "postalCode":"PA35 3WG","street":"Main Road","city":"Auchachenna"},
  { "postalCode":"SP11 2RE","street":"Souterhead Road","city":"Lower Chute"},
  { "postalCode":"ST10 4YE","street":"Kingsway North","city":"Hollington"},
  { "postalCode":"PA23 5SD","street":"Davids Lane","city":"Stronlonag"},
  { "postalCode":"SY7 4ZG","street":"Botley Road","city":"Middlehope"},
  { "postalCode":"AB52 0UL","street":"Fosse Way","city":"Ardlair"},
  { "postalCode":"PH17 4QF","street":"Newport Road","city":"Carie"},
  { "postalCode":"YO4 1JU","street":"Manor Way","city":"Great Givendale"},
  { "postalCode":"NG33 9PH","street":"Traill Street","city":"Ropsley"},
  { "postalCode":"TQ9 8QP","street":"Overton Circle","city":"Littlehempston"},
  { "postalCode":"GU10 2QB","street":"Wrexham Rd","city":"Ewshot"},
  { "postalCode":"KW17 0JT","street":"Brackley Road","city":"Tingwall"},
  { "postalCode":"PA31 0QD","street":"Chapel Lane","city":"Arichonan"},
  { "postalCode":"KA6 8UA","street":"Stamford Road","city":"Annbank"},
  { "postalCode":"KA24 8TE","street":"Park Terrace","city":"Giffordland"},
  { "postalCode":"SW99 4UN","street":"Crown Street","city":"London"},
  { "postalCode":"CA17 9LL","street":"Town Lane","city":"Soulby"},
  { "postalCode":"CF72 8XT","street":"Southlands Road","city":"Pontyclun"},
  { "postalCode":"RG7 7LE","street":"Cefn Road","city":"Farley Hill"},
  { "postalCode":"SY5 9WD","street":"Park Avenue","city":"Lea"},
  { "postalCode":"DG8 5RB","street":"Great North Road","city":"Alticry"},
  { "postalCode":"TR11 5UZ","street":"Bishopthorpe Road","city":"Penjerrick"},
  { "postalCode":"PA21 4EH","street":"Thirsk Road","city":"Blair's Ferry"},
  { "postalCode":"IP12 1RA","street":"Rowland Rd","city":"Orford"},
  { "postalCode":"PA31 5PL","street":"Caerfai Bay Road","city":"Tayvallich"},
  { "postalCode":"EX7 9HE","street":"High Street","city":"Ashcombe"},
  { "postalCode":"PA36 1EN","street":"Southend Avenue","city":"Black Mount"},
  { "postalCode":"SA14 0SE","street":"Caxton Place","city":"Bynea"},
  { "postalCode":"YO8 1SY","street":"Southern Way","city":"North Duffield"},
  { "postalCode":"ZE2 4HR","street":"Boar Lane","city":"Sellafirth"},
  { "postalCode":"BA3 2XF","street":"Cefn Road","city":"Farmborough"},
  { "postalCode":"TR11 0DF","street":"Bishopthorpe Road","city":"Penjerrick"},
  { "postalCode":"HD8 0EH","street":"Nenthead Road","city":"Highburton"},
  { "postalCode":"UB10 6WS","street":"Consett Rd","city":"Hillingdon"},
  { "postalCode":"DT8 2RJ","street":"Bishopgate Street","city":"Seaborough"},
  { "postalCode":"BA9 2RB","street":"Shore Street","city":"Stoke Trister"},
  { "postalCode":"EH34 7GT","street":"Ockham Road","city":"East Saltoun"},
  { "postalCode":"IP29 2GY","street":"Graham Road","city":"Chedburgh"},
  { "postalCode":"NE44 1NR","street":"Telford Street","city":"Barleyhill"},
  { "postalCode":"AL4 2LD","street":"London Road","city":"Colney Heath"},
  { "postalCode":"LL40 6UY","street":"Malcolm Rd","city":"Llanfachreth"},
  { "postalCode":"SA32 7HH","street":"Scarcroft Road","city":"Porthyrhyd"},
  { "postalCode":"ST10 1EB","street":"Prospect Hill","city":"Draycott In The Moors"},
  { "postalCode":"DG6 8GH","street":"Witney Way","city":"Knockbrex"},
  { "postalCode":"IV6 7QH","street":"Bootham Terrace","city":"Redcastle"},
  { "postalCode":"LN4 3UN","street":"Ross Road","city":"Martin"},
  { "postalCode":"AB45 2ST","street":"Walden Road","city":"Greenskares"},
  { "postalCode":"LE15 4ZA","street":"Withers Close","city":"Allexton"},
  { "postalCode":"GL20 0JE","street":"Grenoble Road","city":"Bredon"},
  { "postalCode":"AB52 2XB","street":"Ivy Lane","city":"Wardhouse"},
  { "postalCode":"B60 3QY","street":"Castledore Road","city":"Tutnall"},
  { "postalCode":"SN13 8GW","street":"Newmarket Road","city":"Hawthorn"},
  { "postalCode":"TN19 9YX","street":"Temple Way","city":"Witherenden Hill"},
  { "postalCode":"ML12 3HY","street":"Whitchurch Road","city":"Elsrickle"},
  { "postalCode":"ST6 8EW","street":"Castledore Road","city":"Tunstall"},
  { "postalCode":"TW3 4NH","street":"Ponteland Rd","city":"Hounslow East"},
  { "postalCode":"HG3 0XW","street":"Boroughbridge Road","city":"Birstwith"},
  { "postalCode":"PA30 1HA","street":"Fosse Way","city":"Ardrishaig"},
  { "postalCode":"DL11 2RN","street":"Guildford Rd","city":"East Layton"},
  { "postalCode":"SY7 4ZG","street":"Botley Road","city":"Middlehope"},
  { "postalCode":"FK17 5ZR","street":"Crescent Avenue","city":"Drummond"},
  { "postalCode":"LL18 4HG","street":"Fox Lane","city":"Bodelwyddan"},
  { "postalCode":"PL15 1YF","street":"Prospect Hill","city":"Downhead"},
  { "postalCode":"LD7 2UQ","street":"Colorado Way","city":"Rhos-y-meirch"},
  { "postalCode":"CF1 7NT","street":"Greyfriars Road","city":"Canton"},
  { "postalCode":"NN7 9UA","street":"Ermin Street","city":"Yardley Hastings"},
  { "postalCode":"TR4 6XF","street":"Ponsmere Road","city":"Zelah"},
  { "postalCode":"DG7 8UF","street":"Greyfriars Road","city":"Cardoness"},
  { "postalCode":"EN5 6ZW","street":"South Street","city":"Monken Hadley"},
  { "postalCode":"DN38 1FR","street":"Huntly Street","city":"Barnetby Le Wold"},
  { "postalCode":"BD20 6LB","street":"Kent Street","city":"Cross Hills"},
  { "postalCode":"NE66 9NE","street":"Shannon Way","city":"Chillingham"},
  { "postalCode":"AB1 4JA","street":"Prospect Hill","city":"Downies"},
  { "postalCode":"EX31 2QX","street":"Baldock Street","city":"Newton Tracey"},
  { "postalCode":"KW17 9ZZ","street":"St Dunstans Street","city":"Wasbister"},
  { "postalCode":"CA9 3BL","street":"Great North Road","city":"Alston"},
  { "postalCode":"HU12 0EU","street":"Whitchurch Road","city":"Elstronwick"},
  { "postalCode":"SK7 9JZ","street":"Newmarket Road","city":"Hazel Grove"},
  { "postalCode":"AB42 3EF","street":"Peachfield Road","city":"Chapel Hill"},
  { "postalCode":"L31 8JT","street":"Thompsons Lane","city":"Melling Mount"},
  { "postalCode":"IV23 9FB","street":"Fosse Way","city":"Ardindrean"},
  { "postalCode":"CA19 1ZA","street":"Moulton Road","city":"Gubbergill"},
  { "postalCode":"WR8 4WX","street":"Hindhead Road","city":"Earl's Croome"},
  { "postalCode":"CT14 3WJ","street":"Brackley Road","city":"Tilmanstone"},
  { "postalCode":"IP14 6FB","street":"Whatlington Road","city":"Cotton"},
  { "postalCode":"TD14 6LA","street":"Eastbourne Rd","city":"Coldingham"},
  { "postalCode":"WR11 1GE","street":"Hexham Road","city":"Iron Cross"},
  { "postalCode":"SP5 5PJ","street":"Lamphey Road","city":"The Common"},
  { "postalCode":"BS19 5PZ","street":"Park End St","city":"Brockley"},
  { "postalCode":"SW12 3GE","street":"Crown Street","city":"London"},
  { "postalCode":"CH7 0LR","street":"South Street","city":"Mold"},
  { "postalCode":"PA31 3GY","street":"Monks Way","city":"Torran"},
  { "postalCode":"LN3 9NG","street":"Middlewich Road","city":"Fiskerton"},
  { "postalCode":"LD3 1FY","street":"Peachfield Road","city":"Cefn Cantref"},
  { "postalCode":"DL8 4XH","street":"Lammas Street","city":"Great Crakehall"},
  { "postalCode":"ME17 9AN","street":"Jedburgh Road","city":"Lenham"},
  { "postalCode":"AB41 8WS","street":"Thirsk Road","city":"Blairythan"},
  { "postalCode":"S75 9RQ","street":"Old Chapel Road","city":"Gawber"},
  { "postalCode":"TN21 6RL","street":"West Lane","city":"Dallington"}
]